BEIDOU-2 IGSO-1 (C06)   
1 36828U 10036A   23265.33593935 -.00000130  00000+0  00000+0 0  9998
2 36828  54.2344 172.0103 0036635 187.8449 227.6346  1.00248112 48213
BEIDOU-2 G4 (C04)       
1 37210U 10057A   23265.46316524 -.00000110  00000+0  00000+0 0  9996
2 37210   1.2146  61.6274 0006419 154.2026 111.9329  1.00272892 47272
BEIDOU-2 IGSO-2 (C07)   
1 37256U 10068A   23264.72325137 -.00000164  00000+0  00000+0 0  9995
2 37256  49.3793 284.0951 0032257 213.7434 231.2660  1.00278157 46777
BEIDOU-2 IGSO-3 (C08)   
1 37384U 11013A   23264.74184116 -.00000158  00000+0  00000+0 0  9993
2 37384  60.9652  49.7284 0028473 175.5657 150.3704  1.00277099 45632
BEIDOU-2 IGSO-4 (C09)   
1 37763U 11038A   23264.80408550 -.00000072  00000+0  00000+0 0  9994
2 37763  54.5080 174.5589 0111883 227.8844 342.9208  1.00270387 44628
BEIDOU-2 IGSO-5 (C10)   
1 37948U 11073A   23265.42887560 -.00000113  00000+0  00000+0 0  9995
2 37948  49.5036 283.7555 0095069 220.9048 106.5187  1.00268202 43386
BEIDOU-2 G5 (C05)       
1 38091U 12008A   23265.41140411  .00000059  00000+0  00000+0 0  9998
2 38091   1.7505  68.6700 0004401 172.6689 326.6145  1.00266713 42465
BEIDOU-2 M3 (C11)       
1 38250U 12018A   23265.45491035 -.00000070  00000+0  00000+0 0  9995
2 38250  56.5010 338.2744 0024116 256.2716 103.5187  1.86231066 77687
BEIDOU-2 M4 (C12)       
1 38251U 12018B   23264.84932062 -.00000070  00000+0  00000+0 0  9998
2 38251  56.4118 337.5863 0014971 256.2212 103.6721  1.86231790 77330
BEIDOU-2 M6 (C14)       
1 38775U 12050B   23265.09613275  .00000036  00000+0  00000+0 0  9996
2 38775  55.7046  96.1716 0011155 340.2299  19.7930  1.86231173 75059
BEIDOU-2 G6 (C02)       
1 38953U 12059A   23265.41645142 -.00000174  00000+0  00000+0 0  9991
2 38953   1.8692  81.8471 0007321 311.5381 201.6031  1.00273650 40034
BEIDOU-3S IGSO-1S (C31) 
1 40549U 15019A   23264.66123385 -.00000133  00000+0  00000+0 0  9995
2 40549  51.0696 307.3691 0040772 196.8853 186.5294  1.00252573 31059
BEIDOU-3S M2S (C57)     
1 40748U 15037A   23265.05189718 -.00000068  00000+0  00000+0 0  9999
2 40748  55.6517 336.1680 0011910 243.3046 116.6337  1.86233089 55518
BEIDOU-3S M1S (C58)     
1 40749U 15037B   23264.24812664 -.00000069  00000+0  00000+0 0  9994
2 40749  55.6552 336.1814 0003827 296.6223  63.3996  1.86232829 55502
BEIDOU-3S IGSO-2S (C56) 
1 40938U 15053A   23264.94886417 -.00000094  00000+0  00000+0 0  9994
2 40938  50.7847 270.5405 0047577 195.0472 333.0190  1.00279018 29332
BEIDOU-2 IGSO-6 (C13)   
1 41434U 16021A   23264.80064937 -.00000138  00000+0  00000+0 0  9991
2 41434  58.7799  48.0903 0048045 218.1512 119.1450  1.00279356 27450
BEIDOU-2 G7 (C03)       
1 41586U 16037A   23265.07618953 -.00000351  00000+0  00000+0 0  9996
2 41586   1.9107  68.6375 0007690 345.2174  84.7537  1.00277026 26767
BEIDOU-3 M1 (C19)       
1 43001U 17069A   23261.64074682  .00000028  00000+0  00000+0 0  9990
2 43001  55.8530  96.3488 0007422 300.2700  59.7301  1.86231653 39935
BEIDOU-3 M2 (C20)       
1 43002U 17069B   23264.79921609  .00000035  00000+0  00000+0 0  9998
2 43002  55.8551  96.2788 0005751 334.4633  25.5744  1.86231118 39981
BEIDOU-3 M7 (C27)       
1 43107U 18003A   23264.54997648 -.00000070  00000+0  00000+0 0  9992
2 43107  55.1083 336.8940 0003133  76.8203 283.2743  1.86232392 38745
BEIDOU-3 M8 (C28)       
1 43108U 18003B   23264.48822149 -.00000071  00000+0  00000+0 0  9990
2 43108  55.1013 336.8829 0004330 245.9520 114.0625  1.86230856 38749
BEIDOU-3 M4 (C22)       
1 43207U 18018A   23264.93046280  .00000036  00000+0  00000+0 0  9990
2 43207  55.8143  96.3373 0004417  18.1224 341.9597  1.86231400 38137
BEIDOU-3 M3 (C21)       
1 43208U 18018B   23264.46017004  .00000033  00000+0  00000+0 0  9998
2 43208  55.8135  96.3576 0005313 317.6306  42.3947  1.86231338 38128
BEIDOU-3 M9 (C29)       
1 43245U 18029A   23264.68294481 -.00000067  00000+0  00000+0 0  9999
2 43245  55.0020 334.6224 0001557 225.3075 134.7409  1.86232531 37287
BEIDOU-3 M10 (C30)      
1 43246U 18029B   23264.61295460 -.00000067  00000+0  00000+0 0  9991
2 43246  54.9990 334.6528 0002788 348.9245  11.1306  1.86232857 37260
BEIDOU-2 IGSO-7 (C16)   
1 43539U 18057A   23264.57450074 -.00000136  00000+0  00000+0 0  9993
2 43539  55.1185 171.7089 0064039 230.7418 278.3258  1.00278326 19128
BEIDOU-3 M5 (C23)       
1 43581U 18062A   23264.83317503  .00000045  00000+0  00000+0 0  9992
2 43581  54.1743 216.3165 0004787 285.7429  74.1908  1.86231819 35022
BEIDOU-3 M6 (C24)       
1 43582U 18062B   23264.69929301  .00000046  00000+0  00000+0 0  9993
2 43582  54.1741 216.3106 0005356   1.7022 358.2860  1.86229682 35022
BEIDOU-3 M12 (C26)      
1 43602U 18067A   23264.63543513  .00000046  00000+0  00000+0 0  9992
2 43602  54.2617 214.9694 0007193  14.4154 345.5922  1.86231463 34502
BEIDOU-3 M11 (C25)      
1 43603U 18067B   23265.30621033  .00000040  00000+0  00000+0 0  9996
2 43603  54.2586 214.9122 0004242   0.6461 359.3416  1.86231432 34545
BEIDOU-3 M13 (C32)      
1 43622U 18072A   23263.11734455  .00000029  00000+0  00000+0 0  9990
2 43622  55.7827  95.9370 0004162 295.8735  64.1512  1.86231540 34015
BEIDOU-3 M14 (C33)      
1 43623U 18072B   23265.13060275  .00000036  00000+0  00000+0 0  9995
2 43623  55.7862  95.8622 0002627 350.0068  10.0537  1.86231522 34041
BEIDOU-3 M16 (C35)      
1 43647U 18078A   23264.75650639 -.00000068  00000+0  00000+0 0  9999
2 43647  54.8978 334.7402 0005912   5.9143 354.1537  1.86227225 33547
BEIDOU-3 M15 (C34)      
1 43648U 18078B   23262.73885855 -.00000070  00000+0  00000+0 0  9999
2 43648  54.8947 334.8137 0002743  16.2499 343.8226  1.86232268 33529
BEIDOU-3 G1 (C59)       
1 43683U 18085A   23264.73087816 -.00000274  00000+0  00000+0 0  9995
2 43683   1.5499 123.2155 0003027 353.4490 286.8993  1.00272744 18037
BEIDOU-3 M17 (C36)      
1 43706U 18093A   23264.49763163  .00000048  00000+0  00000+0 0  9997
2 43706  54.2569 216.2465 0009921 282.5286  77.3467  1.86231910 32902
BEIDOU-3 M18 (C37)      
1 43707U 18093B   23264.36379018  .00000048  00000+0  00000+0 0  9996
2 43707  54.2577 216.2427 0008320 308.8118  51.1000  1.86229745 32915
BEIDOU-3 IGSO-1 (C38)   
1 44204U 19023A   23264.89615362 -.00000193  00000+0  00000+0 0  9998
2 44204  57.2464  48.0604 0024074 195.0809 199.9514  1.00277037 16344
BEIDOU-2 G8 (C01)       
1 44231U 19027A   23264.92685941 -.00000246  00000+0  00000+0 0  9995
2 44231   1.9980  81.0395 0006689 132.3914 265.1651  1.00266127 16054
BEIDOU-3 IGSO-2 (C39)   
1 44337U 19035A   23265.30809795 -.00000146  00000+0  00000+0 0  9998
2 44337  55.1520 167.6349 0032929 196.1179 227.7113  1.00268928 15685
BEIDOU-3 M24 (C46)      
1 44542U 19061A   23263.89841918  .00000051  00000+0  00000+0 0  9994
2 44542  54.4844 216.4995 0008472 342.9249  17.0315  1.86231471 27166
BEIDOU-3 M23 (C45)      
1 44543U 19061B   23264.75450723  .00000047  00000+0  00000+0 0  9996
2 44543  54.4826 216.4402 0005864 328.5628 157.2766  1.86231743 27184
BEIDOU-3 IGSO-3 (C40)   
1 44709U 19073A   23263.47887629 -.00000150  00000+0  00000+0 0  9996
2 44709  56.5073 291.5810 0035261 190.2749 169.7196  1.00277258 14429
BEIDOU-3 M22 (C44)      
1 44793U 19078A   23264.28076480 -.00000068  00000+0  00000+0 0  9997
2 44793  54.7466 334.7217 0004756  14.7299 345.3454  1.86232166 26025
BEIDOU-3 M21 (C43)      
1 44794U 19078B   23264.41129069 -.00000068  00000+0  00000+0 0  9995
2 44794  54.7202 334.6990 0002761   1.7448 358.3174  1.86232609 26033
BEIDOU-3 M19 (C41)      
1 44864U 19090A   23264.36560468  .00000032  00000+0  00000+0 0  9993
2 44864  55.7180  96.0817 0015283 274.3575 248.8334  1.86231728 25611
BEIDOU-3 M20 (C42)      
1 44865U 19090B   23262.91678747  .00000028  00000+0  00000+0 0  9998
2 44865  55.7185  96.1630 0013066 289.9285  71.6816  1.86231769 25575
BEIDOU-3 G2 (C60)       
1 45344U 20017A   23265.08730124 -.00000137  00000+0  00000+0 0  9993
2 45344   2.0591  17.0564 0003231 161.2873 293.8253  1.00270907 13258
BEIDOU-3 G3 (C61)       
1 45807U 20040A   23265.07618953 -.00000350  00000+0  00000+0 0  9994
2 45807   0.6035 347.3451 0005925 326.7732 184.4948  1.00266175 12063
BEIDOU-3 G4             
1 56564U 23066A   23265.48161175 -.00000111  00000+0  00000+0 0  9996
2 56564   2.8023 288.7302 0006802 215.1765 190.5967  1.00272079  1394
